[
    {
        "Altitude(m)": 555994.3780596034,
        "Argument of Periapsis(deg)": 0.006622991110713501,
        "Eccentricity": 0.0,
        "Inclination(deg)": 53.0,
        "Latitude(deg)": -9.625278216595705,
        "Longitude(deg)": 81.5289609982618,
        "Mean Anomaly(deg)": -168.09020713242245,
        "RAAN(deg)": 354.990143368528,
        "Satellite Name": "Starlink Shell 1 1573",
        "Satellite Number": 1573,
        "Semi-Major Axis(m)": 6931778.249405717,
        "Time(s)": 190
    },
    {
        "Altitude(m)": 556111.4832065445,
        "Argument of Periapsis(deg)": 0.0069715695902247375,
        "Eccentricity": 0.0,
        "Inclination(deg)": 53.0,
        "Latitude(deg)": -10.124537456165694,
        "Longitude(deg)": 81.87548662988078,
        "Mean Anomaly(deg)": -167.46337592886573,
        "RAAN(deg)": 354.9896245984506,
        "Satellite Name": "Starlink Shell 1 1573",
        "Satellite Number": 1573,
        "Semi-Major Axis(m)": 6931778.249405717,
        "Time(s)": 200
    },
    {
        "Altitude(m)": 556230.9544315116,
        "Argument of Periapsis(deg)": 0.007320148069735974,
        "Eccentricity": 0.0,
        "Inclination(deg)": 53.0,
        "Latitude(deg)": -10.62331022775414,
        "Longitude(deg)": 82.22320162440312,
        "Mean Anomaly(deg)": -166.83654472530895,
        "RAAN(deg)": 354.9891058283731,
        "Satellite Name": "Starlink Shell 1 1573",
        "Satellite Number": 1573,
        "Semi-Major Axis(m)": 6931778.249405717,
        "Time(s)": 210
    },
    {
        "Altitude(m)": 556352.756995032,
        "Argument of Periapsis(deg)": 0.007668726549247212,
        "Eccentricity": 0.0,
        "Inclination(deg)": 53.0,
        "Latitude(deg)": -11.121571143665543,
        "Longitude(deg)": 82.57216881476516,
        "Mean Anomaly(deg)": -166.20971352175226,
        "RAAN(deg)": 354.9885870582956,
        "Satellite Name": "Starlink Shell 1 1573",
        "Satellite Number": 1573,
        "Semi-Major Axis(m)": 6931778.249405717,
        "Time(s)": 220
    },
    {
        "Altitude(m)": 556476.8549765517,
        "Argument of Periapsis(deg)": 0.00801730502875845,
        "Eccentricity": 0.0,
        "Inclination(deg)": 53.0,
        "Latitude(deg)": -11.61929455556302,
        "Longitude(deg)": 82.92245157108417,
        "Mean Anomaly(deg)": -165.58288231819554,
        "RAAN(deg)": 354.98806828821813,
        "Satellite Name": "Starlink Shell 1 1573",
        "Satellite Number": 1573,
        "Semi-Major Axis(m)": 6931778.249405717,
        "Time(s)": 230
    },
    {
        "Altitude(m)": 556603.2112896165,
        "Argument of Periapsis(deg)": 0.008365883508269684,
        "Eccentricity": 0.0,
        "Inclination(deg)": 53.0,
        "Latitude(deg)": -12.116454540160454,
        "Longitude(deg)": 83.27411433139403,
        "Mean Anomaly(deg)": -164.95605111463885,
        "RAAN(deg)": 354.98754951814067,
        "Satellite Name": "Starlink Shell 1 1573",
        "Satellite Number": 1573,
        "Semi-Major Axis(m)": 6931778.249405717,
        "Time(s)": 240
    },
    {
        "Altitude(m)": 556731.7876975939,
        "Argument of Periapsis(deg)": 0.008714461987780921,
        "Eccentricity": 0.0,
        "Inclination(deg)": 53.0,
        "Latitude(deg)": -12.613024884661227,
        "Longitude(deg)": 83.62722161957774,
        "Mean Anomaly(deg)": -164.3292199110821,
        "RAAN(deg)": 354.9870307480632,
        "Satellite Name": "Starlink Shell 1 1573",
        "Satellite Number": 1573,
        "Semi-Major Axis(m)": 6931778.249405717,
        "Time(s)": 250
    },
    {
        "Altitude(m)": 556862.544830029,
        "Argument of Periapsis(deg)": 0.009063040467292158,
        "Eccentricity": 0.0,
        "Inclination(deg)": 53.0,
        "Latitude(deg)": -13.10897907192766,
        "Longitude(deg)": 83.98183857623206,
        "Mean Anomaly(deg)": -163.70238870752536,
        "RAAN(deg)": 354.98651197798574,
        "Satellite Name": "Starlink Shell 1 1573",
        "Satellite Number": 1573,
        "Semi-Major Axis(m)": 6931778.249405717,
        "Time(s)": 260
    },
    {
        "Altitude(m)": 556995.4421994892,
        "Argument of Periapsis(deg)": 0.009411618946803396,
        "Eccentricity": 0.0,
        "Inclination(deg)": 53.0,
        "Latitude(deg)": -13.604290265371594,
        "Longitude(deg)": 84.33803148958401,
        "Mean Anomaly(deg)": -163.0755575039687,
        "RAAN(deg)": 354.9859932079082,
        "Satellite Name": "Starlink Shell 1 1573",
        "Satellite Number": 1573,
        "Semi-Major Axis(m)": 6931778.249405717,
        "Time(s)": 270
    },
    {
        "Altitude(m)": 557130.4382190193,
        "Argument of Periapsis(deg)": 0.009760197426314633,
        "Eccentricity": 0.0,
        "Inclination(deg)": 53.0,
        "Latitude(deg)": -14.09893129355286,
        "Longitude(deg)": 84.69586681357531,
        "Mean Anomaly(deg)": -162.448726300412,
        "RAAN(deg)": 354.98547443783076,
        "Satellite Name": "Starlink Shell 1 1573",
        "Satellite Number": 1573,
        "Semi-Major Axis(m)": 6931778.249405717,
        "Time(s)": 280
    },
    {
        "Altitude(m)": 557267.4902200967,
        "Argument of Periapsis(deg)": 0.01010877590582587,
        "Eccentricity": 0.0,
        "Inclination(deg)": 53.0,
        "Latitude(deg)": -14.592874634472695,
        "Longitude(deg)": 85.05541169884643,
        "Mean Anomaly(deg)": -161.8218950968553,
        "RAAN(deg)": 354.9849556677533,
        "Satellite Name": "Starlink Shell 1 1573",
        "Satellite Number": 1573,
        "Semi-Major Axis(m)": 6931778.249405717,
        "Time(s)": 290
    },
    {
        "Altitude(m)": 557406.5544711336,
        "Argument of Periapsis(deg)": 0.010457354385337106,
        "Eccentricity": 0.0,
        "Inclination(deg)": 53.0,
        "Latitude(deg)": -15.086092399550282,
        "Longitude(deg)": 85.41673452373209,
        "Mean Anomaly(deg)": -161.1950638932985,
        "RAAN(deg)": 354.98443689767583,
        "Satellite Name": "Starlink Shell 1 1573",
        "Satellite Number": 1573,
        "Semi-Major Axis(m)": 6931778.249405717,
        "Time(s)": 300
    },
    {
        "Altitude(m)": 557547.586196526,
        "Argument of Periapsis(deg)": 0.010805932864848343,
        "Eccentricity": 0.0,
        "Inclination(deg)": 53.0,
        "Latitude(deg)": -15.578556317270191,
        "Longitude(deg)": 85.77990391237975,
        "Mean Anomaly(deg)": -160.56823268974185,
        "RAAN(deg)": 354.9839181275983,
        "Satellite Name": "Starlink Shell 1 1573",
        "Satellite Number": 1573,
        "Semi-Major Axis(m)": 6931778.249405717,
        "Time(s)": 310
    },
    {
        "Altitude(m)": 557690.5395961528,
        "Argument of Periapsis(deg)": 0.01115451134435958,
        "Eccentricity": 0.0,
        "Inclination(deg)": 53.0,
        "Latitude(deg)": -16.07023771648847,
        "Longitude(deg)": 86.1449892657144,
        "Mean Anomaly(deg)": -159.9414014861851,
        "RAAN(deg)": 354.98339935752085,
        "Satellite Name": "Starlink Shell 1 1573",
        "Satellite Number": 1573,
        "Semi-Major Axis(m)": 6931778.249405717,
        "Time(s)": 320
    },
    {
        "Altitude(m)": 557835.3678654557,
        "Argument of Periapsis(deg)": 0.011503089823870818,
        "Eccentricity": 0.0,
        "Inclination(deg)": 53.0,
        "Latitude(deg)": -16.561107509383927,
        "Longitude(deg)": 86.51206129235429,
        "Mean Anomaly(deg)": -159.31457028262844,
        "RAAN(deg)": 354.98288058744345,
        "Satellite Name": "Starlink Shell 1 1573",
        "Satellite Number": 1573,
        "Semi-Major Axis(m)": 6931778.249405717,
        "Time(s)": 330
    },
    {
        "Altitude(m)": 557982.0232159467,
        "Argument of Periapsis(deg)": 0.011851668303382053,
        "Eccentricity": 0.0,
        "Inclination(deg)": 53.0,
        "Latitude(deg)": -17.051136174044373,
        "Longitude(deg)": 86.88119102658113,
        "Mean Anomaly(deg)": -158.68773907907166,
        "RAAN(deg)": 354.9823618173659,
        "Satellite Name": "Starlink Shell 1 1573",
        "Satellite Number": 1573,
        "Semi-Major Axis(m)": 6931778.249405717,
        "Time(s)": 340
    },
    {
        "Altitude(m)": 558130.4568962166,
        "Argument of Periapsis(deg)": 0.012200246782893292,
        "Eccentricity": 0.0,
        "Inclination(deg)": 53.0,
        "Latitude(deg)": -17.540293736673576,
        "Longitude(deg)": 87.2524503590784,
        "Mean Anomaly(deg)": -158.06090787551494,
        "RAAN(deg)": 354.98184304728846,
        "Satellite Name": "Starlink Shell 1 1573",
        "Satellite Number": 1573,
        "Semi-Major Axis(m)": 6931778.249405717,
        "Time(s)": 350
    },
    {
        "Altitude(m)": 558280.6192134339,
        "Argument of Periapsis(deg)": 0.012548825262404526,
        "Eccentricity": 0.0,
        "Inclination(deg)": 53.0,
        "Latitude(deg)": -18.028549753408665,
        "Longitude(deg)": 87.62591256753483,
        "Mean Anomaly(deg)": -157.43407667195828,
        "RAAN(deg)": 354.981324277211,
        "Satellite Name": "Starlink Shell 1 1573",
        "Satellite Number": 1573,
        "Semi-Major Axis(m)": 6931778.249405717,
        "Time(s)": 360
    },
    {
        "Altitude(m)": 558432.4595552535,
        "Argument of Periapsis(deg)": 0.012897403741915765,
        "Eccentricity": 0.0,
        "Inclination(deg)": 53.0,
        "Latitude(deg)": -18.515873291735716,
        "Longitude(deg)": 88.00165133420438,
        "Mean Anomaly(deg)": -156.8072454684016,
        "RAAN(deg)": 354.9808055071335,
        "Satellite Name": "Starlink Shell 1 1573",
        "Satellite Number": 1573,
        "Semi-Major Axis(m)": 6931778.249405717,
        "Time(s)": 370
    }
]